HULIANWANG DIGUI-60     
1 65166U 25174C   26194.87462688  .00000043  00000+0  65325-4 0  9995
2 65166  86.4940 242.9895 0001823 102.4937 257.6401 13.24406894 44325
HULIANWANG DIGUI-61     
1 65167U 25174D   26194.80665257  .00000034  00000+0  44763-4 0  9999
2 65167  86.4948 243.0457 0001652 100.0750 260.0570 13.24407529 44317
HULIANWANG DIGUI-62     
1 65168U 25174E   26194.81409167  .00000037  00000+0  51191-4 0  9993
2 65168  86.4890 242.8590 0001720 104.7943 255.3382 13.24409112 44318
HULIANWANG DIGUI-63     
1 65169U 25174F   26194.82156581  .00000033  00000+0  41840-4 0  9990
2 65169  86.4942 243.0320 0001616 104.2183 255.9130 13.24403369 44311
HULIANWANG DIGUI-64     
1 65170U 25174G   26194.82928672  .00000047  00000+0  74322-4 0  9996
2 65170  86.4901 242.9031 0001787 104.2730 255.8602 13.24407330 44317
HULIANWANG DIGUI-65     
1 65171U 25174H   26194.84434549  .00000072  00000+0  13322-3 0  9994
2 65171  86.4864 242.7916 0001702  98.9955 261.1372 13.24407355 44312
HULIANWANG DIGUI-66     
1 65172U 25174J   26194.83683257  .00000059  00000+0  10329-3 0  9995
2 65172  86.4899 242.9045 0001816 102.5134 257.6203 13.24407003 44316
HULIANWANG DIGUI-67     
1 65173U 25174K   26194.85191110  .00000072  00000+0  13284-3 0  9998
2 65173  86.4911 242.9476 0001804 100.3501 259.7836 13.24408521 44288
HULIANWANG DIGUI-68     
1 65228U 25178A   26194.87446029  .00000053  00000+0  89794-4 0  9996
2 65228  86.4986   4.5139 0002015  91.7852 268.3513 13.24411260 43849
HULIANWANG DIGUI-69     
1 65229U 25178B   26194.86701868  .00000034  00000+0  45876-4 0  9993
2 65229  86.5006   4.5766 0001919  92.0787 268.0567 13.24412633 43844
HULIANWANG DIGUI-70     
1 65230U 25178C   26194.85945572  .00000012  00000+0 -53138-5 0  9994
2 65230  86.4944   4.3709 0002016  90.4545 269.6820 13.24411731 43841
HULIANWANG DIGUI-71     
1 65231U 25178D   26194.85191676  .00000015  00000+0  38586-6 0  9996
2 65231  86.5003   4.5615 0001993  91.0004 269.1358 13.24411488 43847
HULIANWANG DIGUI-72     
1 65232U 25178E   26194.84436209  .00000000  00000+0 -33216-4 0  9998
2 65232  86.4987   4.5008 0002000  91.2559 268.8804 13.24410953 43849
HULIANWANG DIGUI-73     
1 65305U 25187A   26194.82606446 -.00000112  00000+0  26255-4 0  9998
2 65305  50.0050 110.3409 0000143 304.4490  55.6369 13.29323393 43246
HULIANWANG DIGUI-74     
1 65306U 25187B   26194.80944584 -.00000113  00000+0  23925-4 0  9997
2 65306  50.0093 110.3619 0000166 299.1116  60.9740 13.29321497 43242
HULIANWANG DIGUI-75     
1 65307U 25187C   26194.79275787 -.00000116  00000+0  16856-4 0  9996
2 65307  50.0084 110.2557 0000150 309.0928  50.9931 13.29322773 43247
