{"fetched_at":"2026-07-14T06:34:47.836Z","source":"https://celestrak.org/NORAD/elements/gp.php?NAME=HULIANWANG&FORMAT=JSON","constellation":"guowang","records":[{"OBJECT_NAME":"HULIANWANG DIGUI-60","OBJECT_ID":"2025-174C","EPOCH":"2026-07-13T20:59:27.762432","CLASSIFICATION_TYPE":"U","MEAN_MOTION":13.24406894,"ECCENTRICITY":0.0001823,"INCLINATION":86.494,"RA_OF_ASC_NODE":242.9895,"ARG_OF_PERICENTER":102.4937,"MEAN_ANOMALY":257.6401,"EPHEMERIS_TYPE":0,"NORAD_CAT_ID":65166,"ELEMENT_SET_NO":999,"REV_AT_EPOCH":4432,"BSTAR":0.000065325,"MEAN_MOTION_DOT":4.3e-7,"MEAN_MOTION_DDOT":0},{"OBJECT_NAME":"HULIANWANG DIGUI-61","OBJECT_ID":"2025-174D","EPOCH":"2026-07-13T19:21:34.782048","CLASSIFICATION_TYPE":"U","MEAN_MOTION":13.24407529,"ECCENTRICITY":0.0001652,"INCLINATION":86.4948,"RA_OF_ASC_NODE":243.0457,"ARG_OF_PERICENTER":100.075,"MEAN_ANOMALY":260.057,"EPHEMERIS_TYPE":0,"NORAD_CAT_ID":65167,"ELEMENT_SET_NO":999,"REV_AT_EPOCH":4431,"BSTAR":0.000044763,"MEAN_MOTION_DOT":3.4e-7,"MEAN_MOTION_DDOT":0},{"OBJECT_NAME":"HULIANWANG DIGUI-62","OBJECT_ID":"2025-174E","EPOCH":"2026-07-13T19:32:17.520288","CLASSIFICATION_TYPE":"U","MEAN_MOTION":13.24409112,"ECCENTRICITY":0.000172,"INCLINATION":86.489,"RA_OF_ASC_NODE":242.859,"ARG_OF_PERICENTER":104.7943,"MEAN_ANOMALY":255.3382,"EPHEMERIS_TYPE":0,"NORAD_CAT_ID":65168,"ELEMENT_SET_NO":999,"REV_AT_EPOCH":4431,"BSTAR":0.000051191,"MEAN_MOTION_DOT":3.7e-7,"MEAN_MOTION_DDOT":0},{"OBJECT_NAME":"HULIANWANG DIGUI-63","OBJECT_ID":"2025-174F","EPOCH":"2026-07-13T19:43:03.285984","CLASSIFICATION_TYPE":"U","MEAN_MOTION":13.24403369,"ECCENTRICITY":0.0001616,"INCLINATION":86.4942,"RA_OF_ASC_NODE":243.032,"ARG_OF_PERICENTER":104.2183,"MEAN_ANOMALY":255.913,"EPHEMERIS_TYPE":0,"NORAD_CAT_ID":65169,"ELEMENT_SET_NO":999,"REV_AT_EPOCH":4431,"BSTAR":0.00004184,"MEAN_MOTION_DOT":3.3e-7,"MEAN_MOTION_DDOT":0},{"OBJECT_NAME":"HULIANWANG DIGUI-64","OBJECT_ID":"2025-174G","EPOCH":"2026-07-13T19:54:10.372608","CLASSIFICATION_TYPE":"U","MEAN_MOTION":13.2440733,"ECCENTRICITY":0.0001787,"INCLINATION":86.4901,"RA_OF_ASC_NODE":242.9031,"ARG_OF_PERICENTER":104.273,"MEAN_ANOMALY":255.8602,"EPHEMERIS_TYPE":0,"NORAD_CAT_ID":65170,"ELEMENT_SET_NO":999,"REV_AT_EPOCH":4431,"BSTAR":0.000074322,"MEAN_MOTION_DOT":4.7e-7,"MEAN_MOTION_DDOT":0},{"OBJECT_NAME":"HULIANWANG DIGUI-65","OBJECT_ID":"2025-174H","EPOCH":"2026-07-13T20:15:51.450336","CLASSIFICATION_TYPE":"U","MEAN_MOTION":13.24407355,"ECCENTRICITY":0.0001702,"INCLINATION":86.4864,"RA_OF_ASC_NODE":242.7916,"ARG_OF_PERICENTER":98.9955,"MEAN_ANOMALY":261.1372,"EPHEMERIS_TYPE":0,"NORAD_CAT_ID":65171,"ELEMENT_SET_NO":999,"REV_AT_EPOCH":4431,"BSTAR":0.00013322,"MEAN_MOTION_DOT":7.2e-7,"MEAN_MOTION_DDOT":0},{"OBJECT_NAME":"HULIANWANG DIGUI-66","OBJECT_ID":"2025-174J","EPOCH":"2026-07-13T20:05:02.334048","CLASSIFICATION_TYPE":"U","MEAN_MOTION":13.24407003,"ECCENTRICITY":0.0001816,"INCLINATION":86.4899,"RA_OF_ASC_NODE":242.9045,"ARG_OF_PERICENTER":102.5134,"MEAN_ANOMALY":257.6203,"EPHEMERIS_TYPE":0,"NORAD_CAT_ID":65172,"ELEMENT_SET_NO":999,"REV_AT_EPOCH":4431,"BSTAR":0.00010329,"MEAN_MOTION_DOT":5.9e-7,"MEAN_MOTION_DDOT":0},{"OBJECT_NAME":"HULIANWANG DIGUI-67","OBJECT_ID":"2025-174K","EPOCH":"2026-07-13T20:26:45.119040","CLASSIFICATION_TYPE":"U","MEAN_MOTION":13.24408521,"ECCENTRICITY":0.0001804,"INCLINATION":86.4911,"RA_OF_ASC_NODE":242.9476,"ARG_OF_PERICENTER":100.3501,"MEAN_ANOMALY":259.7836,"EPHEMERIS_TYPE":0,"NORAD_CAT_ID":65173,"ELEMENT_SET_NO":999,"REV_AT_EPOCH":4428,"BSTAR":0.00013284,"MEAN_MOTION_DOT":7.2e-7,"MEAN_MOTION_DDOT":0},{"OBJECT_NAME":"HULIANWANG DIGUI-68","OBJECT_ID":"2025-178A","EPOCH":"2026-07-13T20:59:13.369056","CLASSIFICATION_TYPE":"U","MEAN_MOTION":13.2441126,"ECCENTRICITY":0.0002015,"INCLINATION":86.4986,"RA_OF_ASC_NODE":4.5139,"ARG_OF_PERICENTER":91.7852,"MEAN_ANOMALY":268.3513,"EPHEMERIS_TYPE":0,"NORAD_CAT_ID":65228,"ELEMENT_SET_NO":999,"REV_AT_EPOCH":4384,"BSTAR":0.000089794,"MEAN_MOTION_DOT":5.3e-7,"MEAN_MOTION_DDOT":0},{"OBJECT_NAME":"HULIANWANG DIGUI-69","OBJECT_ID":"2025-178B","EPOCH":"2026-07-13T20:48:30.413952","CLASSIFICATION_TYPE":"U","MEAN_MOTION":13.24412633,"ECCENTRICITY":0.0001919,"INCLINATION":86.5006,"RA_OF_ASC_NODE":4.5766,"ARG_OF_PERICENTER":92.0787,"MEAN_ANOMALY":268.0567,"EPHEMERIS_TYPE":0,"NORAD_CAT_ID":65229,"ELEMENT_SET_NO":999,"REV_AT_EPOCH":4384,"BSTAR":0.000045876,"MEAN_MOTION_DOT":3.4e-7,"MEAN_MOTION_DDOT":0},{"OBJECT_NAME":"HULIANWANG DIGUI-70","OBJECT_ID":"2025-178C","EPOCH":"2026-07-13T20:37:36.974208","CLASSIFICATION_TYPE":"U","MEAN_MOTION":13.24411731,"ECCENTRICITY":0.0002016,"INCLINATION":86.4944,"RA_OF_ASC_NODE":4.3709,"ARG_OF_PERICENTER":90.4545,"MEAN_ANOMALY":269.682,"EPHEMERIS_TYPE":0,"NORAD_CAT_ID":65230,"ELEMENT_SET_NO":999,"REV_AT_EPOCH":4384,"BSTAR":-0.0000053138,"MEAN_MOTION_DOT":1.2e-7,"MEAN_MOTION_DDOT":0},{"OBJECT_NAME":"HULIANWANG DIGUI-71","OBJECT_ID":"2025-178D","EPOCH":"2026-07-13T20:26:45.608064","CLASSIFICATION_TYPE":"U","MEAN_MOTION":13.24411488,"ECCENTRICITY":0.0001993,"INCLINATION":86.5003,"RA_OF_ASC_NODE":4.5615,"ARG_OF_PERICENTER":91.0004,"MEAN_ANOMALY":269.1358,"EPHEMERIS_TYPE":0,"NORAD_CAT_ID":65231,"ELEMENT_SET_NO":999,"REV_AT_EPOCH":4384,"BSTAR":3.8586e-7,"MEAN_MOTION_DOT":1.5e-7,"MEAN_MOTION_DDOT":0},{"OBJECT_NAME":"HULIANWANG DIGUI-72","OBJECT_ID":"2025-178E","EPOCH":"2026-07-13T20:15:52.884576","CLASSIFICATION_TYPE":"U","MEAN_MOTION":13.24410953,"ECCENTRICITY":0.0002,"INCLINATION":86.4987,"RA_OF_ASC_NODE":4.5008,"ARG_OF_PERICENTER":91.2559,"MEAN_ANOMALY":268.8804,"EPHEMERIS_TYPE":0,"NORAD_CAT_ID":65232,"ELEMENT_SET_NO":999,"REV_AT_EPOCH":4384,"BSTAR":-0.000033216,"MEAN_MOTION_DOT":0,"MEAN_MOTION_DDOT":0},{"OBJECT_NAME":"HULIANWANG DIGUI-73","OBJECT_ID":"2025-187A","EPOCH":"2026-07-13T19:49:31.969344","CLASSIFICATION_TYPE":"U","MEAN_MOTION":13.29323393,"ECCENTRICITY":0.0000143,"INCLINATION":50.005,"RA_OF_ASC_NODE":110.3409,"ARG_OF_PERICENTER":304.449,"MEAN_ANOMALY":55.6369,"EPHEMERIS_TYPE":0,"NORAD_CAT_ID":65305,"ELEMENT_SET_NO":999,"REV_AT_EPOCH":4324,"BSTAR":0.000026255,"MEAN_MOTION_DOT":-0.00000112,"MEAN_MOTION_DDOT":0},{"OBJECT_NAME":"HULIANWANG DIGUI-74","OBJECT_ID":"2025-187B","EPOCH":"2026-07-13T19:25:36.120576","CLASSIFICATION_TYPE":"U","MEAN_MOTION":13.29321497,"ECCENTRICITY":0.0000166,"INCLINATION":50.0093,"RA_OF_ASC_NODE":110.3619,"ARG_OF_PERICENTER":299.1116,"MEAN_ANOMALY":60.974,"EPHEMERIS_TYPE":0,"NORAD_CAT_ID":65306,"ELEMENT_SET_NO":999,"REV_AT_EPOCH":4324,"BSTAR":0.000023925,"MEAN_MOTION_DOT":-0.00000113,"MEAN_MOTION_DDOT":0},{"OBJECT_NAME":"HULIANWANG DIGUI-75","OBJECT_ID":"2025-187C","EPOCH":"2026-07-13T19:01:34.279968","CLASSIFICATION_TYPE":"U","MEAN_MOTION":13.29322773,"ECCENTRICITY":0.000015,"INCLINATION":50.0084,"RA_OF_ASC_NODE":110.2557,"ARG_OF_PERICENTER":309.0928,"MEAN_ANOMALY":50.9931,"EPHEMERIS_TYPE":0,"NORAD_CAT_ID":65307,"ELEMENT_SET_NO":999,"REV_AT_EPOCH":4324,"BSTAR":0.000016856,"MEAN_MOTION_DOT":-0.00000116,"MEAN_MOTION_DDOT":0}]}
